CCSDS_OMM_VERS = 2.0
CREATION_DATE  = 
ORIGINATOR     = 

OBJECT_NAME    = STARLINK-36466
OBJECT_ID      = 2026-003AA
CENTER_NAME    = EARTH
REF_FRAME      = TEME
TIME_SYSTEM    = UTC
MEAN_ELEMENT_THEORY = SGP/SGP4

EPOCH          = 2026-02-05T01:33:31.271328
MEAN_MOTION    = 15.50672706
ECCENTRICITY   = .0000505
INCLINATION    = 42.9943
RA_OF_ASC_NODE = 52.2395
ARG_OF_PERICENTER = 242.7085
MEAN_ANOMALY   = 117.3724

EPHEMERIS_TYPE = 0
CLASSIFICATION_TYPE = U
NORAD_CAT_ID   = 67358
ELEMENT_SET_NO = 999
REV_AT_EPOCH   = 382
BSTAR          = .19118E-2
MEAN_MOTION_DOT = .113838E-2
MEAN_MOTION_DDOT = 0

CCSDS_OMM_VERS = 2.0
CREATION_DATE  = 
ORIGINATOR     = 

OBJECT_NAME    = STARLINK-36499
OBJECT_ID      = 2026-003AB
CENTER_NAME    = EARTH
REF_FRAME      = TEME
TIME_SYSTEM    = UTC
MEAN_ELEMENT_THEORY = SGP/SGP4

EPOCH          = 2026-02-05T04:00:01.999584
MEAN_MOTION    = 15.48440873
ECCENTRICITY   = .0000887
INCLINATION    = 42.9992
RA_OF_ASC_NODE = 51.6471
ARG_OF_PERICENTER = 258.0624
MEAN_ANOMALY   = 310.7033

EPHEMERIS_TYPE = 0
CLASSIFICATION_TYPE = U
NORAD_CAT_ID   = 67359
ELEMENT_SET_NO = 999
REV_AT_EPOCH   = 544
BSTAR          = -.43414E-1
MEAN_MOTION_DOT = -.2095723E-1
MEAN_MOTION_DDOT = 0

CCSDS_OMM_VERS = 2.0
CREATION_DATE  = 
ORIGINATOR     = 

OBJECT_NAME    = STARLINK-36469
OBJECT_ID      = 2026-003AC
CENTER_NAME    = EARTH
REF_FRAME      = TEME
TIME_SYSTEM    = UTC
MEAN_ELEMENT_THEORY = SGP/SGP4

EPOCH          = 2026-02-05T01:32:32.145216
MEAN_MOTION    = 15.50676958
ECCENTRICITY   = .000095
INCLINATION    = 42.9952
RA_OF_ASC_NODE = 52.2363
ARG_OF_PERICENTER = 181.6779
MEAN_ANOMALY   = 178.4079

EPHEMERIS_TYPE = 0
CLASSIFICATION_TYPE = U
NORAD_CAT_ID   = 67360
ELEMENT_SET_NO = 999
REV_AT_EPOCH   = 382
BSTAR          = .154E-2
MEAN_MOTION_DOT = .91385E-3
MEAN_MOTION_DDOT = 0

CCSDS_OMM_VERS = 2.0
CREATION_DATE  = 
ORIGINATOR     = 

OBJECT_NAME    = STARLINK-35306
OBJECT_ID      = 2026-003AD
CENTER_NAME    = EARTH
REF_FRAME      = TEME
TIME_SYSTEM    = UTC
MEAN_ELEMENT_THEORY = SGP/SGP4

EPOCH          = 2026-02-05T00:00:01.999296
MEAN_MOTION    = 15.50579474
ECCENTRICITY   = .0001373
INCLINATION    = 42.9994
RA_OF_ASC_NODE = 52.6052
ARG_OF_PERICENTER = 265.9556
MEAN_ANOMALY   = 97.0428

EPHEMERIS_TYPE = 0
CLASSIFICATION_TYPE = U
NORAD_CAT_ID   = 67361
ELEMENT_SET_NO = 999
REV_AT_EPOCH   = 536
BSTAR          = -.74794E-3
MEAN_MOTION_DOT = -.43974E-3
MEAN_MOTION_DDOT = 0

CCSDS_OMM_VERS = 2.0
CREATION_DATE  = 
ORIGINATOR     = 

OBJECT_NAME    = STARLINK-36428
OBJECT_ID      = 2026-003AE
CENTER_NAME    = EARTH
REF_FRAME      = TEME
TIME_SYSTEM    = UTC
MEAN_ELEMENT_THEORY = SGP/SGP4

EPOCH          = 2026-02-05T00:00:01.999296
MEAN_MOTION    = 15.50558358
ECCENTRICITY   = .0001462
INCLINATION    = 42.9994
RA_OF_ASC_NODE = 52.6004
ARG_OF_PERICENTER = 260.9202
MEAN_ANOMALY   = 104.0018

EPHEMERIS_TYPE = 0
CLASSIFICATION_TYPE = U
NORAD_CAT_ID   = 67362
ELEMENT_SET_NO = 999
REV_AT_EPOCH   = 542
BSTAR          = -.97546E-4
MEAN_MOTION_DOT = -.6055E-4
MEAN_MOTION_DDOT = 0

CCSDS_OMM_VERS = 2.0
CREATION_DATE  = 
ORIGINATOR     = 

OBJECT_NAME    = TWILIGHT A
OBJECT_ID      = 2026-004A
CENTER_NAME    = EARTH
REF_FRAME      = TEME
TIME_SYSTEM    = UTC
MEAN_ELEMENT_THEORY = SGP/SGP4

EPOCH          = 2026-02-05T02:36:27.310752
MEAN_MOTION    = 14.87033842
ECCENTRICITY   = .0008046
INCLINATION    = 97.7999
RA_OF_ASC_NODE = 36.8324
ARG_OF_PERICENTER = 205.4912
MEAN_ANOMALY   = 154.5908

EPHEMERIS_TYPE = 0
CLASSIFICATION_TYPE = U
NORAD_CAT_ID   = 67363
ELEMENT_SET_NO = 999
REV_AT_EPOCH   = 364
BSTAR          = .71782E-3
MEAN_MOTION_DOT = .6386E-4
MEAN_MOTION_DDOT = 0

CCSDS_OMM_VERS = 2.0
CREATION_DATE  = 
ORIGINATOR     = 

OBJECT_NAME    = TWILIGHT B
OBJECT_ID      = 2026-004B
CENTER_NAME    = EARTH
REF_FRAME      = TEME
TIME_SYSTEM    = UTC
MEAN_ELEMENT_THEORY = SGP/SGP4

EPOCH          = 2026-02-05T02:34:08.422752
MEAN_MOTION    = 14.87163356
ECCENTRICITY   = .0007981
INCLINATION    = 97.8003
RA_OF_ASC_NODE = 36.8348
ARG_OF_PERICENTER = 200.7709
MEAN_ANOMALY   = 159.3184

EPHEMERIS_TYPE = 0
CLASSIFICATION_TYPE = U
NORAD_CAT_ID   = 67364
ELEMENT_SET_NO = 999
REV_AT_EPOCH   = 365
BSTAR          = .77221E-3
MEAN_MOTION_DOT = .6897E-4
MEAN_MOTION_DDOT = 0

CCSDS_OMM_VERS = 2.0
CREATION_DATE  = 
ORIGINATOR     = 

OBJECT_NAME    = TWILIGHT C
OBJECT_ID      = 2026-004C
CENTER_NAME    = EARTH
REF_FRAME      = TEME
TIME_SYSTEM    = UTC
MEAN_ELEMENT_THEORY = SGP/SGP4

EPOCH          = 2026-02-05T02:33:38.337408
MEAN_MOTION    = 14.87199068
ECCENTRICITY   = .000739
INCLINATION    = 97.7987
RA_OF_ASC_NODE = 36.8317
ARG_OF_PERICENTER = 207.8947
MEAN_ANOMALY   = 152.1874

EPHEMERIS_TYPE = 0
CLASSIFICATION_TYPE = U
NORAD_CAT_ID   = 67365
ELEMENT_SET_NO = 999
REV_AT_EPOCH   = 365
BSTAR          = .1579E-2
MEAN_MOTION_DOT = .14185E-3
MEAN_MOTION_DDOT = 0

CCSDS_OMM_VERS = 2.0
CREATION_DATE  = 
ORIGINATOR     = 

OBJECT_NAME    = TWILIGHT D
OBJECT_ID      = 2026-004D
CENTER_NAME    = EARTH
REF_FRAME      = TEME
TIME_SYSTEM    = UTC
MEAN_ELEMENT_THEORY = SGP/SGP4

EPOCH          = 2026-02-05T02:33:17.434656
MEAN_MOTION    = 14.87140142
ECCENTRICITY   = .0008168
INCLINATION    = 97.8035
RA_OF_ASC_NODE = 36.8408
ARG_OF_PERICENTER = 194.5674
MEAN_ANOMALY   = 165.5308

EPHEMERIS_TYPE = 0
CLASSIFICATION_TYPE = U
NORAD_CAT_ID   = 67366
ELEMENT_SET_NO = 999
REV_AT_EPOCH   = 365
BSTAR          = .47917E-3
MEAN_MOTION_DOT = .4255E-4
MEAN_MOTION_DDOT = 0

CCSDS_OMM_VERS = 2.0
CREATION_DATE  = 
ORIGINATOR     = 

OBJECT_NAME    = TWILIGHT E
OBJECT_ID      = 2026-004E
CENTER_NAME    = EARTH
REF_FRAME      = TEME
TIME_SYSTEM    = UTC
MEAN_ELEMENT_THEORY = SGP/SGP4

EPOCH          = 2026-02-05T04:07:48.715104
MEAN_MOTION    = 14.87294996
ECCENTRICITY   = .0006857
INCLINATION    = 97.7969
RA_OF_ASC_NODE = 36.8976
ARG_OF_PERICENTER = 207.5501
MEAN_ANOMALY   = 152.5352

EPHEMERIS_TYPE = 0
CLASSIFICATION_TYPE = U
NORAD_CAT_ID   = 67367
ELEMENT_SET_NO = 999
REV_AT_EPOCH   = 366
BSTAR          = .17085E-3
MEAN_MOTION_DOT = .1487E-4
MEAN_MOTION_DDOT = 0

CCSDS_OMM_VERS = 2.0
CREATION_DATE  = 
ORIGINATOR     = 

OBJECT_NAME    = TWILIGHT F
OBJECT_ID      = 2026-004F
CENTER_NAME    = EARTH
REF_FRAME      = TEME
TIME_SYSTEM    = UTC
MEAN_ELEMENT_THEORY = SGP/SGP4

EPOCH          = 2026-02-05T02:30:03.668832
MEAN_MOTION    = 14.87330950
ECCENTRICITY   = .0007509
INCLINATION    = 97.8027
RA_OF_ASC_NODE = 36.8431
ARG_OF_PERICENTER = 195.7166
MEAN_ANOMALY   = 164.3818

EPHEMERIS_TYPE = 0
CLASSIFICATION_TYPE = U
NORAD_CAT_ID   = 67368
ELEMENT_SET_NO = 999
REV_AT_EPOCH   = 365
BSTAR          = .70747E-3
MEAN_MOTION_DOT = .6339E-4
MEAN_MOTION_DDOT = 0

CCSDS_OMM_VERS = 2.0
CREATION_DATE  = 
ORIGINATOR     = 

OBJECT_NAME    = TWILIGHT G
OBJECT_ID      = 2026-004G
CENTER_NAME    = EARTH
REF_FRAME      = TEME
TIME_SYSTEM    = UTC
MEAN_ELEMENT_THEORY = SGP/SGP4

EPOCH          = 2026-02-05T02:29:13.731360
MEAN_MOTION    = 14.87281354
ECCENTRICITY   = .0006411
INCLINATION    = 97.7958
RA_OF_ASC_NODE = 36.8322
ARG_OF_PERICENTER = 209.5624
MEAN_ANOMALY   = 150.5230

EPHEMERIS_TYPE = 0
CLASSIFICATION_TYPE = U
NORAD_CAT_ID   = 67369
ELEMENT_SET_NO = 999
REV_AT_EPOCH   = 365
BSTAR          = .36932E-3
MEAN_MOTION_DOT = .3278E-4
MEAN_MOTION_DDOT = 0

