STARLINK-36466          
1 67358U 26003AA  26036.06494527  .00113838  00000+0  19118-2 0  9999
2 67358  42.9943  52.2395 0000505 242.7085 117.3724 15.50672706  3823
STARLINK-36499          
1 67359U 26003AB  26036.16668981 -.02095723  00000+0 -43414-1 0  9999
2 67359  42.9992  51.6471 0000887 258.0624 310.7033 15.48440873  5445
STARLINK-36469          
1 67360U 26003AC  26036.06426094  .00091385  00000+0  15400-2 0  9998
2 67360  42.9952  52.2363 0000950 181.6779 178.4079 15.50676958  3820
STARLINK-35306          
1 67361U 26003AD  26036.00002314 -.00043974  00000+0 -74794-3 0  9993
2 67361  42.9994  52.6052 0001373 265.9556  97.0428 15.50579474  5365
STARLINK-36428          
1 67362U 26003AE  26036.00002314 -.00006055  00000+0 -97546-4 0  9994
2 67362  42.9994  52.6004 0001462 260.9202 104.0018 15.50558358  5424
TWILIGHT A              
1 67363U 26004A   26036.10864943  .00006386  00000+0  71782-3 0  9999
2 67363  97.7999  36.8324 0008046 205.4912 154.5908 14.87033842  3649
TWILIGHT B              
1 67364U 26004B   26036.10704193  .00006897  00000+0  77221-3 0  9991
2 67364  97.8003  36.8348 0007981 200.7709 159.3184 14.87163356  3656
TWILIGHT C              
1 67365U 26004C   26036.10669372  .00014185  00000+0  15790-2 0  9992
2 67365  97.7987  36.8317 0007390 207.8947 152.1874 14.87199068  3655
TWILIGHT D              
1 67366U 26004D   26036.10645179  .00004255  00000+0  47917-3 0  9996
2 67366  97.8035  36.8408 0008168 194.5674 165.5308 14.87140142  3654
TWILIGHT E              
1 67367U 26004E   26036.17209161  .00001487  00000+0  17085-3 0  9998
2 67367  97.7969  36.8976 0006857 207.5501 152.5352 14.87294996  3660
TWILIGHT F              
1 67368U 26004F   26036.10420913  .00006339  00000+0  70747-3 0  9997
2 67368  97.8027  36.8431 0007509 195.7166 164.3818 14.87330950  3651
TWILIGHT G              
1 67369U 26004G   26036.10363115  .00003278  00000+0  36932-3 0  9995
2 67369  97.7958  36.8322 0006411 209.5624 150.5230 14.87281354  3655
